HIMAWARI-8              
1 40267U 14060A   23319.90535437 -.00000256  00000+0  00000+0 0  9996
2 40267   0.0080 248.6107 0000784 327.3583 305.3714  1.00269667 33294
